start=new Date('2022-08-21T00:00:00.000Z').valueOf();
sats=[{"MEAN_MOTION":"15.70833620","SEMIMAJOR_AXIS":"6734.650","OBJECT_ID":"2022-083G","NORAD_CAT_ID":"53138","OBJECT_TYPE":"PAYLOAD","RCS_SIZE":"LARGE","EPHEMERIS_TYPE":"0","REF_FRAME":"TEME","MEAN_MOTION_DDOT":"0.0000000000000","MEAN_ANOMALY":"97.3951","CENTER_NAME":"EARTH","REV_AT_EPOCH":"130","CLASSIFICATION_TYPE":"U","RA_OF_ASC_NODE":"236.4853","COUNTRY_CODE":"US","OBJECT_NAME":"STARLINK-4141","TIME_SYSTEM":"UTC","GP_ID":"210623481","MEAN_MOTION_DOT":"-0.01060974","MEAN_ELEMENT_THEORY":"SGP4","DECAY_DATE":null,"FILE":"3541760","ELEMENT_SET_NO":"999","TLE_LINE1":"1 53138U 22083G   22232.91667824 -.01060974  00000-0 -92948-2 0  9992","LAUNCH_DATE":"2022-07-17","ARG_OF_PERICENTER":"355.9184","PERIOD":"91.671","EPOCH":"2022-08-20T22:00:00.999936","SITE":"AFETR","APOAPSIS":"358.492","ECCENTRICITY":"0.00029350","PERIAPSIS":"354.539","TLE_LINE2":"2 53138  53.2172 236.4853 0002935 355.9184  97.3951 15.70833620  1300","BSTAR":"-0.00929480000000","INCLINATION":"53.2172"},{"ELEMENT_SET_NO":"999","TLE_LINE1":"1 53139U 22083H   22232.91667824 -.01376114  00000-0 -26477-1 0  9992","LAUNCH_DATE":"2022-07-17","PERIOD":"92.878","EPOCH":"2022-08-20T22:00:00.999936","ARG_OF_PERICENTER":"44.5057","SITE":"AFETR","APOAPSIS":"416.277","OBJECT_NAME":"STARLINK-4185","GP_ID":"210622778","TIME_SYSTEM":"UTC","MEAN_MOTION_DOT":"-0.01376114","MEAN_ELEMENT_THEORY":"SGP4","FILE":"3541760","DECAY_DATE":null,"BSTAR":"-0.02647700000000","TLE_LINE2":"2 53139  53.2166 238.0840 0001133  44.5057 325.5018 15.50417758  1305","INCLINATION":"53.2166","ECCENTRICITY":"0.00011330","PERIAPSIS":"414.738","NORAD_CAT_ID":"53139","OBJECT_TYPE":"PAYLOAD","RCS_SIZE":"LARGE","EPHEMERIS_TYPE":"0","REF_FRAME":"TEME","MEAN_MOTION":"15.50417758","SEMIMAJOR_AXIS":"6793.642","OBJECT_ID":"2022-083H","CLASSIFICATION_TYPE":"U","COUNTRY_CODE":"US","RA_OF_ASC_NODE":"238.0840","MEAN_MOTION_DDOT":"0.0000000000000","MEAN_ANOMALY":"325.5018","CENTER_NAME":"EARTH","REV_AT_EPOCH":"130"},{"OBJECT_TYPE":"PAYLOAD","NORAD_CAT_ID":"53140","RCS_SIZE":"LARGE","REF_FRAME":"TEME","EPHEMERIS_TYPE":"0","MEAN_MOTION":"15.49808270","SEMIMAJOR_AXIS":"6795.423","OBJECT_ID":"2022-083J","RA_OF_ASC_NODE":"238.0699","COUNTRY_CODE":"US","CLASSIFICATION_TYPE":"U","MEAN_MOTION_DDOT":"0.0000000000000","CENTER_NAME":"EARTH","MEAN_ANOMALY":"332.8532","REV_AT_EPOCH":"130","TLE_LINE1":"1 53140U 22083J   22232.91667824 -.01000079  00000-0 -19351-1 0  9991","ELEMENT_SET_NO":"999","EPOCH":"2022-08-20T22:00:00.999936","PERIOD":"92.915","ARG_OF_PERICENTER":"36.5583","LAUNCH_DATE":"2022-07-17","SITE":"AFETR","APOAPSIS":"418.241","OBJECT_NAME":"STARLINK-4170","GP_ID":"210622938","TIME_SYSTEM":"UTC","FILE":"3541760","DECAY_DATE":null,"MEAN_ELEMENT_THEORY":"SGP4","MEAN_MOTION_DOT":"-0.01000079","BSTAR":"-0.01935100000000","TLE_LINE2":"2 53140  53.2170 238.0699 0001402  36.5583 332.8532 15.49808270  1301","INCLINATION":"53.2170","ECCENTRICITY":"0.00014020","PERIAPSIS":"416.336"},{"TLE_LINE1":"1 53141U 22083K   22232.91667824  .00059308  00000-0  10469-2 0  9990","ELEMENT_SET_NO":"999","PERIOD":"92.913","EPOCH":"2022-08-20T22:00:00.999936","ARG_OF_PERICENTER":"58.3391","LAUNCH_DATE":"2022-07-17","SITE":"AFETR","APOAPSIS":"418.165","OBJECT_NAME":"STARLINK-4103","TIME_SYSTEM":"UTC","GP_ID":"210623079","DECAY_DATE":null,"FILE":"3541760","MEAN_ELEMENT_THEORY":"SGP4","MEAN_MOTION_DOT":"0.00059308","BSTAR":"0.00104690000000","TLE_LINE2":"2 53141  53.2154 238.1265 0001396  58.3391 315.3244 15.49832945  1307","INCLINATION":"53.2154","ECCENTRICITY":"0.00013960","PERIAPSIS":"416.268","OBJECT_TYPE":"PAYLOAD","NORAD_CAT_ID":"53141","RCS_SIZE":"LARGE","REF_FRAME":"TEME","EPHEMERIS_TYPE":"0","MEAN_MOTION":"15.49832945","SEMIMAJOR_AXIS":"6795.351","OBJECT_ID":"2022-083K","COUNTRY_CODE":"US","RA_OF_ASC_NODE":"238.1265","CLASSIFICATION_TYPE":"U","MEAN_MOTION_DDOT":"0.0000000000000","CENTER_NAME":"EARTH","MEAN_ANOMALY":"315.3244","REV_AT_EPOCH":"130"},{"TIME_SYSTEM":"UTC","GP_ID":"210623331","OBJECT_NAME":"STARLINK-4101","MEAN_MOTION_DOT":"-0.00642084","MEAN_ELEMENT_THEORY":"SGP4","FILE":"3541760","DECAY_DATE":null,"LAUNCH_DATE":"2022-07-17","ARG_OF_PERICENTER":"51.8285","PERIOD":"92.905","EPOCH":"2022-08-20T22:00:00.999936","ELEMENT_SET_NO":"999","TLE_LINE1":"1 53142U 22083L   22232.91667824 -.00642084  00000-0 -12222-1 0  9990","APOAPSIS":"417.595","SITE":"AFETR","ECCENTRICITY":"0.00011840","PERIAPSIS":"415.986","BSTAR":"-0.01222200000000","TLE_LINE2":"2 53142  53.2159 238.0971 0001184  51.8285 319.4150 15.49978565  1301","INCLINATION":"53.2159","MEAN_MOTION":"15.49978565","OBJECT_ID":"2022-083L","SEMIMAJOR_AXIS":"6794.926","RCS_SIZE":"LARGE","NORAD_CAT_ID":"53142","OBJECT_TYPE":"PAYLOAD","EPHEMERIS_TYPE":"0","REF_FRAME":"TEME","MEAN_MOTION_DDOT":"0.0000000000000","REV_AT_EPOCH":"130","MEAN_ANOMALY":"319.4150","CENTER_NAME":"EARTH","CLASSIFICATION_TYPE":"U","RA_OF_ASC_NODE":"238.0971","COUNTRY_CODE":"US"},{"MEAN_MOTION_DDOT":"0.0000000000000","CENTER_NAME":"EARTH","MEAN_ANOMALY":"299.6295","REV_AT_EPOCH":"130","COUNTRY_CODE":"US","RA_OF_ASC_NODE":"238.1378","CLASSIFICATION_TYPE":"U","MEAN_MOTION":"15.49835849","SEMIMAJOR_AXIS":"6795.343","OBJECT_ID":"2022-083M","OBJECT_TYPE":"PAYLOAD","NORAD_CAT_ID":"53143","RCS_SIZE":"LARGE","REF_FRAME":"TEME","EPHEMERIS_TYPE":"0","ECCENTRICITY":"0.00015000","PERIAPSIS":"416.189","BSTAR":"0.00102920000000","TLE_LINE2":"2 53143  53.2151 238.1378 0001500  74.9078 299.6295 15.49835849  1300","INCLINATION":"53.2151","OBJECT_NAME":"STARLINK-4102","TIME_SYSTEM":"UTC","GP_ID":"210623192","FILE":"3541760","DECAY_DATE":null,"MEAN_MOTION_DOT":"0.00058296","MEAN_ELEMENT_THEORY":"SGP4","TLE_LINE1":"1 53143U 22083M   22232.91667824  .00058296  00000-0  10292-2 0  9991","ELEMENT_SET_NO":"999","EPOCH":"2022-08-20T22:00:00.999936","PERIOD":"92.913","ARG_OF_PERICENTER":"74.9078","LAUNCH_DATE":"2022-07-17","SITE":"AFETR","APOAPSIS":"418.227"},{"CLASSIFICATION_TYPE":"U","RA_OF_ASC_NODE":"238.1081","COUNTRY_CODE":"US","REV_AT_EPOCH":"130","MEAN_ANOMALY":"296.1288","CENTER_NAME":"EARTH","MEAN_MOTION_DDOT":"0.0000000000000","EPHEMERIS_TYPE":"0","REF_FRAME":"TEME","RCS_SIZE":"LARGE","NORAD_CAT_ID":"53144","OBJECT_TYPE":"PAYLOAD","OBJECT_ID":"2022-083N","SEMIMAJOR_AXIS":"6794.952","MEAN_MOTION":"15.49969709","INCLINATION":"53.2162","TLE_LINE2":"2 53144  53.2162 238.1081 0000839  75.8884 296.1288 15.49969709  1300","BSTAR":"-0.00601320000000","PERIAPSIS":"416.247","ECCENTRICITY":"0.00008390","APOAPSIS":"417.387","SITE":"AFETR","LAUNCH_DATE":"2022-07-17","PERIOD":"92.905","ARG_OF_PERICENTER":"75.8884","EPOCH":"2022-08-20T22:00:00.999936","ELEMENT_SET_NO":"999","TLE_LINE1":"1 53144U 22083N   22232.91667824 -.00328766  00000-0 -60132-2 0  9994","MEAN_ELEMENT_THEORY":"SGP4","MEAN_MOTION_DOT":"-0.00328766","FILE":"3541760","DECAY_DATE":null,"GP_ID":"210622524","TIME_SYSTEM":"UTC","OBJECT_NAME":"STARLINK-4100"},{"EPHEMERIS_TYPE":"0","REF_FRAME":"TEME","RCS_SIZE":"LARGE","NORAD_CAT_ID":"53145","OBJECT_TYPE":"PAYLOAD","OBJECT_ID":"2022-083P","SEMIMAJOR_AXIS":"6795.241","MEAN_MOTION":"15.49870680","CLASSIFICATION_TYPE":"U","COUNTRY_CODE":"US","RA_OF_ASC_NODE":"238.1619","REV_AT_EPOCH":"130","MEAN_ANOMALY":"339.4209","CENTER_NAME":"EARTH","MEAN_MOTION_DDOT":"0.0000000000000","APOAPSIS":"418.148","SITE":"AFETR","LAUNCH_DATE":"2022-07-17","PERIOD":"92.911","EPOCH":"2022-08-20T22:00:00.999936","ARG_OF_PERICENTER":"36.8429","ELEMENT_SET_NO":"999","TLE_LINE1":"1 53145U 22083P   22232.91667824  .00058415  00000-0  10300-2 0  9996","MEAN_ELEMENT_THEORY":"SGP4","MEAN_MOTION_DOT":"0.00058415","FILE":"3541760","DECAY_DATE":null,"GP_ID":"210622666","TIME_SYSTEM":"UTC","OBJECT_NAME":"STARLINK-4106","INCLINATION":"53.2155","TLE_LINE2":"2 53145  53.2155 238.1619 0001534  36.8429 339.4209 15.49870680  1308","BSTAR":"0.00103000000000","PERIAPSIS":"416.064","ECCENTRICITY":"0.00015340"},{"MEAN_MOTION_DDOT":"0.0000000000000","CENTER_NAME":"EARTH","MEAN_ANOMALY":"287.0963","REV_AT_EPOCH":"130","COUNTRY_CODE":"US","RA_OF_ASC_NODE":"238.1160","CLASSIFICATION_TYPE":"U","MEAN_MOTION":"15.49923057","SEMIMAJOR_AXIS":"6795.088","OBJECT_ID":"2022-083Q","OBJECT_TYPE":"PAYLOAD","NORAD_CAT_ID":"53146","RCS_SIZE":"LARGE","REF_FRAME":"TEME","EPHEMERIS_TYPE":"0","ECCENTRICITY":"0.00011260","PERIAPSIS":"416.188","TLE_LINE2":"2 53146  53.2159 238.1160 0001126  85.6512 287.0963 15.49923057  1308","BSTAR":"0.00016941000000","INCLINATION":"53.2159","OBJECT_NAME":"STARLINK-4099","GP_ID":"210623482","TIME_SYSTEM":"UTC","DECAY_DATE":null,"FILE":"3541760","MEAN_ELEMENT_THEORY":"SGP4","MEAN_MOTION_DOT":"0.00009188","TLE_LINE1":"1 53146U 22083Q   22232.91667824  .00009188  00000-0  16941-3 0  9998","ELEMENT_SET_NO":"999","EPOCH":"2022-08-20T22:00:00.999936","PERIOD":"92.908","ARG_OF_PERICENTER":"85.6512","LAUNCH_DATE":"2022-07-17","SITE":"AFETR","APOAPSIS":"417.718"},{"MEAN_ELEMENT_THEORY":"SGP4","MEAN_MOTION_DOT":"-0.00247326","FILE":"3541760","DECAY_DATE":null,"OBJECT_NAME":"STARLINK-4094","TIME_SYSTEM":"UTC","GP_ID":"210622779","SITE":"AFETR","APOAPSIS":"417.958","ELEMENT_SET_NO":"999","TLE_LINE1":"1 53147U 22083R   22232.91667824 -.00247326  00000-0 -44772-2 0  9991","LAUNCH_DATE":"2022-07-17","ARG_OF_PERICENTER":"44.0395","PERIOD":"92.906","EPOCH":"2022-08-20T22:00:00.999936","PERIAPSIS":"415.760","ECCENTRICITY":"0.00016170","INCLINATION":"53.2163","TLE_LINE2":"2 53147  53.2163 238.1782 0001617  44.0395 333.0752 15.49955215  1306","BSTAR":"-0.00447720000000","SEMIMAJOR_AXIS":"6794.994","OBJECT_ID":"2022-083R","MEAN_MOTION":"15.49955215","EPHEMERIS_TYPE":"0","REF_FRAME":"TEME","NORAD_CAT_ID":"53147","OBJECT_TYPE":"PAYLOAD","RCS_SIZE":"LARGE","MEAN_ANOMALY":"333.0752","CENTER_NAME":"EARTH","REV_AT_EPOCH":"130","MEAN_MOTION_DDOT":"0.0000000000000","CLASSIFICATION_TYPE":"U","RA_OF_ASC_NODE":"238.1782","COUNTRY_CODE":"US"}];
